{"type": "FeatureCollection", "features": [ {"type": "Feature", "properties": {"norad_id": 66767, "name": "TRANSPORTER-15DF", "group": "last-30-days", "lat": 70.9286267373242, "lon": -86.05570112106406, "alt_km": 502.66207594633397, "timestamp": "2025-12-26T04:40:04.511205+00:00", "meta": {"OBJECT_NAME": "TRANSPORTER-15DF", "OBJECT_ID": "2025-276DF", "EPOCH": "2025-12-25T21:52:09.524640", "MEAN_MOTION": 15.18355986, "ECCENTRICITY": 0.00020471, "INCLINATION": 97.4364, "RA_OF_ASC_NODE": 71.4682, "ARG_OF_PERICENTER": 86.1326, "MEAN_ANOMALY": 274.0143, "EPHEMERIS_TYPE": 0, "CLASSIFICATION_TYPE": "U", "NORAD_CAT_ID": 66767, "ELEMENT_SET_NO": 999, "REV_AT_EPOCH": 412, "BSTAR": 0.00023617927, "MEAN_MOTION_DOT": 4.784e-05, "MEAN_MOTION_DDOT": 0}, "tle": {"line1": "1 66767U 25276DF  25359.91122135  .00004784  00000+0  23618-3 0  9997", "line2": "2 66767  97.4364  71.4682 0002047  86.1326 274.0143 15.18355986  4123"}}, "geometry": {"type": "Point", "coordinates": [-86.05570112106406, 70.9286267373242]}}, {"type": "Feature", "properties": {"norad_id": 66768, "name": "TRANSPORTER-15DG", "group": "last-30-days", "lat": 57.617966045610174, "lon": -96.36830100418963, "alt_km": 503.66000413650727, "timestamp": "2025-12-26T04:40:04.511215+00:00", "meta": {"OBJECT_NAME": "TRANSPORTER-15DG", "OBJECT_ID": "2025-276DG", "EPOCH": "2025-12-25T21:48:32.187168", "MEAN_MOTION": 15.18569818, "ECCENTRICITY": 0.00021364, "INCLINATION": 97.435, "RA_OF_ASC_NODE": 71.4674, "ARG_OF_PERICENTER": 74.1713, "MEAN_ANOMALY": 285.9757, "EPHEMERIS_TYPE": 0, "CLASSIFICATION_TYPE": "U", "NORAD_CAT_ID": 66768, "ELEMENT_SET_NO": 999, "REV_AT_EPOCH": 412, "BSTAR": 0.00049996435, "MEAN_MOTION_DOT": 0.00010273, "MEAN_MOTION_DDOT": 0}, "tle": {"line1": "1 66768U 25276DG  25359.90870587  .00010273  00000+0  49996-3 0  9995", "line2": "2 66768  97.4350  71.4674 0002136  74.1713 285.9757 15.18569818  4129"}}, "geometry": {"type": "Point", "coordinates": [-96.36830100418963, 57.617966045610174]}}, {"type": "Feature", "properties": {"norad_id": 66769, "name": "TRANSPORTER-15DH", "group": "last-30-days", "lat": 63.7276682005452, "lon": -92.88030182552687, "alt_km": 502.5346568869418, "timestamp": "2025-12-26T04:40:04.511225+00:00", "meta": {"OBJECT_NAME": "TRANSPORTER-15DH", "OBJECT_ID": "2025-276DH", "EPOCH": "2025-12-25T21:50:10.077504", "MEAN_MOTION": 15.18439382, "ECCENTRICITY": 0.00027317, "INCLINATION": 97.4412, "RA_OF_ASC_NODE": 71.4862, "ARG_OF_PERICENTER": 101.9782, "MEAN_ANOMALY": 258.1758, "EPHEMERIS_TYPE": 0, "CLASSIFICATION_TYPE": "U", "NORAD_CAT_ID": 66769, "ELEMENT_SET_NO": 999, "REV_AT_EPOCH": 412, "BSTAR": 0.00028549376, "MEAN_MOTION_DOT": 5.812e-05, "MEAN_MOTION_DDOT": 0}, "tle": {"line1": "1 66769U 25276DH  25359.90983886  .00005812  00000+0  28549-3 0  9997", "line2": "2 66769  97.4412  71.4862 0002731 101.9782 258.1758 15.18439382  4129"}}, "geometry": {"type": "Point", "coordinates": [-92.88030182552687, 63.7276682005452]}}, {"type": "Feature", "properties": {"norad_id": 66770, "name": "TRANSPORTER-15DJ", "group": "last-30-days", "lat": 62.262468130478254, "lon": -93.82431039570508, "alt_km": 502.33712220929647, "timestamp": "2025-12-26T04:40:04.511235+00:00", "meta": {"OBJECT_NAME": "TRANSPORTER-15DJ", "OBJECT_ID": "2025-276DJ", "EPOCH": "2025-12-25T21:49:45.361920", "MEAN_MOTION": 15.18406616, "ECCENTRICITY": 0.00033023, "INCLINATION": 97.4442, "RA_OF_ASC_NODE": 71.4975, "ARG_OF_PERICENTER": 116.6669, "MEAN_ANOMALY": 243.4904, "EPHEMERIS_TYPE": 0, "CLASSIFICATION_TYPE": "U", "NORAD_CAT_ID": 66770, "ELEMENT_SET_NO": 999, "REV_AT_EPOCH": 412, "BSTAR": 0.00024857361, "MEAN_MOTION_DOT": 5.047e-05, "MEAN_MOTION_DDOT": 0}, "tle": {"line1": "1 66770U 25276DJ  25359.90955280  .00005047  00000+0  24857-3 0  9994", "line2": "2 66770  97.4442  71.4975 0003302 116.6669 243.4904 15.18406616  4125"}}, "geometry": {"type": "Point", "coordinates": [-93.82431039570508, 62.262468130478254]}}, {"type": "Feature", "properties": {"norad_id": 66771, "name": "TRANSPORTER-15DK", "group": "last-30-days", "lat": 58.997855373781924, "lon": -95.65660611841759, "alt_km": 502.6193521320838, "timestamp": "2025-12-26T04:40:04.511246+00:00", "meta": {"OBJECT_NAME": "TRANSPORTER-15DK", "OBJECT_ID": "2025-276DK", "EPOCH": "2025-12-25T21:48:53.568576", "MEAN_MOTION": 15.18502756, "ECCENTRICITY": 0.00030603, "INCLINATION": 97.4436, "RA_OF_ASC_NODE": 71.4958, "ARG_OF_PERICENTER": 109.3227, "MEAN_ANOMALY": 250.8339, "EPHEMERIS_TYPE": 0, "CLASSIFICATION_TYPE": "U", "NORAD_CAT_ID": 66771, "ELEMENT_SET_NO": 999, "REV_AT_EPOCH": 412, "BSTAR": 0.00031634392, "MEAN_MOTION_DOT": 6.46e-05, "MEAN_MOTION_DDOT": 0}, "tle": {"line1": "1 66771U 25276DK  25359.90895334  .00006460  00000+0  31634-3 0  9999", "line2": "2 66771  97.4436  71.4958 0003060 109.3227 250.8339 15.18502756  4126"}}, "geometry": {"type": "Point", "coordinates": [-95.65660611841759, 58.997855373781924]}}, {"type": "Feature", "properties": {"norad_id": 66772, "name": "TRANSPORTER-15DL", "group": "last-30-days", "lat": 43.18793744381109, "lon": -101.17145706333017, "alt_km": 502.2041882993535, "timestamp": "2025-12-26T04:40:04.511257+00:00", "meta": {"OBJECT_NAME": "TRANSPORTER-15DL", "OBJECT_ID": "2025-276DL", "EPOCH": "2025-12-25T21:44:48.456096", "MEAN_MOTION": 15.19094221, "ECCENTRICITY": 0.00037006, "INCLINATION": 97.4427, "RA_OF_ASC_NODE": 71.496, "ARG_OF_PERICENTER": 154.4608, "MEAN_ANOMALY": 205.681, "EPHEMERIS_TYPE": 0, "CLASSIFICATION_TYPE": "U", "NORAD_CAT_ID": 66772, "ELEMENT_SET_NO": 999, "REV_AT_EPOCH": 412, "BSTAR": 0.011266509, "MEAN_MOTION_DOT": 0.00244186, "MEAN_MOTION_DDOT": 0}, "tle": {"line1": "1 66772U 25276DL  25359.90611639  .00244186  00000+0  11267-1 0  9991", "line2": "2 66772  97.4427  71.4960 0003700 154.4608 205.6810 15.19094221  4121"}}, "geometry": {"type": "Point", "coordinates": [-101.17145706333017, 43.18793744381109]}}, {"type": "Feature", "properties": {"norad_id": 66773, "name": "TRANSPORTER-15DM", "group": "last-30-days", "lat": 52.25433692753125, "lon": -98.50362204493955, "alt_km": 503.51717947598263, "timestamp": "2025-12-26T04:40:04.511267+00:00", "meta": {"OBJECT_NAME": "TRANSPORTER-15DM", "OBJECT_ID": "2025-276DM", "EPOCH": "2025-12-25T21:47:05.283456", "MEAN_MOTION": 15.18558607, "ECCENTRICITY": 0.00031455, "INCLINATION": 97.4423, "RA_OF_ASC_NODE": 71.493, "ARG_OF_PERICENTER": 96.345, "MEAN_ANOMALY": 263.8142, "EPHEMERIS_TYPE": 0, "CLASSIFICATION_TYPE": "U", "NORAD_CAT_ID": 66773, "ELEMENT_SET_NO": 999, "REV_AT_EPOCH": 412, "BSTAR": 0.00030584887, "MEAN_MOTION_DOT": 6.253e-05, "MEAN_MOTION_DDOT": 0}, "tle": {"line1": "1 66773U 25276DM  25359.90770004  .00006253  00000+0  30585-3 0  9991", "line2": "2 66773  97.4423  71.4930 0003145  96.3450 263.8142 15.18558607  4123"}}, "geometry": {"type": "Point", "coordinates": [-98.50362204493955, 52.25433692753125]}}, {"type": "Feature", "properties": {"norad_id": 66774, "name": "TRANSPORTER-15DN", "group": "last-30-days", "lat": 48.89393141509687, "lon": -99.61364598965031, "alt_km": 503.9717929451281, "timestamp": "2025-12-26T04:40:04.511279+00:00", "meta": {"OBJECT_NAME": "TRANSPORTER-15DN", "OBJECT_ID": "2025-276DN", "EPOCH": "2025-12-25T21:46:12.142272", "MEAN_MOTION": 15.18622952, "ECCENTRICITY": 0.00030069, "INCLINATION": 97.4409, "RA_OF_ASC_NODE": 71.489, "ARG_OF_PERICENTER": 94.5156, "MEAN_ANOMALY": 265.6422, "EPHEMERIS_TYPE": 0, "CLASSIFICATION_TYPE": "U", "NORAD_CAT_ID": 66774, "ELEMENT_SET_NO": 999, "REV_AT_EPOCH": 412, "BSTAR": 0.00035461737, "MEAN_MOTION_DOT": 7.275e-05, "MEAN_MOTION_DDOT": 0}, "tle": {"line1": "1 66774U 25276DN  25359.90708498  .00007275  00000+0  35462-3 0  9994", "line2": "2 66774  97.4409  71.4890 0003006  94.5156 265.6422 15.18622952  4128"}}, "geometry": {"type": "Point", "coordinates": [-99.61364598965031, 48.89393141509687]}}, {"type": "Feature", "properties": {"norad_id": 66775, "name": "PHI 1", "group": "last-30-days", "lat": 44.542782198771995, "lon": -100.86834895576442, "alt_km": 507.65199269561253, "timestamp": "2025-12-26T04:40:04.511289+00:00", "meta": {"OBJECT_NAME": "PHI 1", "OBJECT_ID": "2025-276DP", "EPOCH": "2025-12-25T21:44:58.989120", "MEAN_MOTION": 15.18430588, "ECCENTRICITY": 0.00054972, "INCLINATION": 97.4333, "RA_OF_ASC_NODE": 71.4659, "ARG_OF_PERICENTER": 37.4503, "MEAN_ANOMALY": 322.7113, "EPHEMERIS_TYPE": 0, "CLASSIFICATION_TYPE": "U", "NORAD_CAT_ID": 66775, "ELEMENT_SET_NO": 999, "REV_AT_EPOCH": 412, "BSTAR": -0.0072382054, "MEAN_MOTION_DOT": -0.00146086, "MEAN_MOTION_DDOT": 0}, "tle": {"line1": "1 66775U 25276DP  25359.90623830 -.00146086  00000+0 -72382-2 0  9998", "line2": "2 66775  97.4333  71.4659 0005497  37.4503 322.7113 15.18430588  4120"}}, "geometry": {"type": "Point", "coordinates": [-100.86834895576442, 44.542782198771995]}}, {"type": "Feature", "properties": {"norad_id": 66776, "name": "TRANSPORTER-15DQ", "group": "last-30-days", "lat": 41.48459573578381, "lon": -101.6038914979182, "alt_km": 505.3861135537172, "timestamp": "2025-12-26T04:40:04.511299+00:00", "meta": {"OBJECT_NAME": "TRANSPORTER-15DQ", "OBJECT_ID": "2025-276DQ", "EPOCH": "2025-12-25T21:44:15.097920", "MEAN_MOTION": 15.18739728, "ECCENTRICITY": 0.00028229, "INCLINATION": 97.4372, "RA_OF_ASC_NODE": 71.4791, "ARG_OF_PERICENTER": 79.2307, "MEAN_ANOMALY": 280.9245, "EPHEMERIS_TYPE": 0, "CLASSIFICATION_TYPE": "U", "NORAD_CAT_ID": 66776, "ELEMENT_SET_NO": 999, "REV_AT_EPOCH": 412, "BSTAR": 0.00040896523, "MEAN_MOTION_DOT": 8.43e-05, "MEAN_MOTION_DDOT": 0}, "tle": {"line1": "1 66776U 25276DQ  25359.90573030  .00008430  00000+0  40897-3 0  9990", "line2": "2 66776  97.4372  71.4791 0002822  79.2307 280.9245 15.18739728  4125"}}, "geometry": {"type": "Point", "coordinates": [-101.6038914979182, 41.48459573578381]}}]}